DMSP 5D-3 F16 (USA 172) 
1 28054U 03048A   26188.61615939 -.00000002  00000+0  22458-4 0  9996
2 28054  98.9886 212.5791 0008217  89.7504  15.7086 14.14484941172374
METEOSAT-9 (MSG-2)      
1 28912U 05049B   26188.22521814  .00000133  00000+0  00000+0 0  9995
2 28912   9.4037  53.9656 0002161   0.5612 357.4517  1.00268823  7194
DMSP 5D-3 F17 (USA 191) 
1 29522U 06050A   26188.60523869  .00000027  00000+0  36588-4 0  9997
2 29522  98.7382 194.7577 0010182   4.7689 355.3580 14.14995903 15319
FENGYUN 3A              
1 32958U 08026A   26188.27607894  .00000061  00000+0  49626-4 0  9998
2 32958  98.6886 128.7338 0009859  72.3325 287.8927 14.19575424938251
GOES 14                 
1 35491U 09033A   26188.61017928 -.00000334  00000+0  00000+0 0  9995
2 35491   1.7392  82.7972 0002012  34.6201 157.5740  1.00102314  6795
DMSP 5D-3 F18 (USA 210) 
1 35951U 09057A   26188.57792392  .00000210  00000+0  13200-3 0  9994
2 35951  98.9049 169.3038 0010763 187.1354 172.9668 14.14907973862471
EWS-G2 (GOES 15)        
1 36411U 10008A   26188.51407105  .00000036  00000+0  00000+0 0  9999
2 36411   1.3302  82.5686 0005305  50.9416  40.4457  1.00268160 59843
COMS 1                  
1 36744U 10032A   26188.00140631 -.00000175  00000+0  00000+0 0  9992
2 36744   4.8529  75.1185 0011440  14.6993 190.2555  0.99169409 51283
FENGYUN 3B              
1 37214U 10059A   26188.60826368  .00000070  00000+0  59237-4 0  9992
2 37214  98.9606 234.7085 0022940 127.0444 336.1613 14.14846751810312
SUOMI NPP               
1 37849U 11061A   26188.57001640  .00000052  00000+0  45934-4 0  9993
2 37849  98.7955 129.3072 0000561 271.9046  88.2066 14.19521524761335
METEOSAT-10 (MSG-3)     
1 38552U 12035B   26188.28762247  .00000005  00000+0  00000+0 0  9990
2 38552   4.7161  60.9176 0001286  18.9815 308.9890  1.00269748 51057
METOP-B                 
1 38771U 12049A   26188.53259590  .00000066  00000+0  49929-4 0  9993
2 38771  98.6493 239.6248 0001115 302.5643  57.5427 14.21444907716158
INSAT-3D                
1 39216U 13038B   26188.61018009 -.00000325  00000+0  00000+0 0  9995
2 39216   1.9755  82.2905 0000512  58.9626 133.5122  1.00272480 47282
FENGYUN 3C              
1 39260U 13052A   26188.60976635  .00000064  00000+0  53536-4 0  9993
2 39260  98.4992 161.5480 0014032 329.0539  30.9808 14.15759567661459
METEOR-M 2              
1 40069U 14037A   26188.62905900  .00000161  00000+0  93057-4 0  9995
2 40069  98.5130 163.6443 0005637 350.3599   9.7470 14.21467681622220
HIMAWARI-8              
1 40267U 14060A   26188.60063440 -.00000260  00000+0  00000+0 0  9995
2 40267   0.0378 276.9306 0000892 204.1337 161.3961  1.00270429 42964
FENGYUN 2G              
1 40367U 14090A   26188.59251977 -.00000288  00000+0  00000+0 0  9991
2 40367   5.6872  72.5733 0003849 150.3506  15.3877  1.00264085 42206
METEOSAT-11 (MSG-4)     
1 40732U 15034A   26188.28944248  .00000075  00000+0  00000+0 0  9995
2 40732   3.2505  70.9853 0002249 350.9491 336.7955  1.00269388  7410
ELEKTRO-L 2             
1 41105U 15074A   26188.24653743 -.00000106  00000+0  00000+0 0  9993
2 41105   6.7409  70.2783 0000601 240.8898  48.2797  1.00273381 38702
SENTINEL-3A             
1 41335U 16011A   26188.55423237  .00000073  00000+0  48233-4 0  9994
2 41335  98.6240 255.6445 0001410  92.5880 267.5462 14.26738331540960
INSAT-3DR               
1 41752U 16054A   26188.62962140 -.00000062  00000+0  00000+0 0  9997
2 41752   0.0500  89.4834 0010449 181.2251 315.5469  1.00272243 36025
HIMAWARI-9              
1 41836U 16064A   26187.95906303  .00000000  00000+0  00000+0 0  9996
2 41836   0.0138  10.3948 0002206 162.3808 238.1863  1.00271383 35407
GOES 16                 
1 41866U 16071A   26188.55201135 -.00000076  00000+0  00000+0 0  9999
2 41866   0.3880  85.6370 0000494  70.8142 223.1066  1.00271495 35304
FENGYUN 4A              
1 41882U 16077A   26188.52602818 -.00000343  00000+0  00000+0 0  9990
2 41882   2.3708  80.0644 0008161 157.9323   0.6473  1.00272996 35131
CYGFM05                 
1 41884U 16078A   26188.24688169  .00018785  00000+0  24617-3 0  9997
2 41884  34.9560 127.6686 0007468 322.9181  37.1027 15.57578683531881
CYGFM04                 
1 41885U 16078B   26188.15353659  .00025085  00000+0  26974-3 0  9990
2 41885  34.9321  94.9485 0005578 358.8214   1.2498 15.62704475532123
CYGFM02                 
1 41886U 16078C   26188.11479657  .00030735  00000+0  29063-3 0  9994
2 41886  34.9397  89.1424 0006489   3.0984 356.9782 15.65904314532292
CYGFM01                 
1 41887U 16078D   26188.22665621  .00019674  00000+0  25096-3 0  9996
2 41887  34.9388 128.6947 0007413 316.9964  43.0180 15.58285664531831
CYGFM08                 
1 41888U 16078E   26188.15092975  .00023550  00000+0  26934-3 0  9995
2 41888  34.9424 108.2367 0007748 348.0053  12.0487 15.61111887532093
CYGFM07                 
1 41890U 16078G   26188.17274105  .00023080  00000+0  26304-3 0  9996
2 41890  34.9442  96.4152 0005967   0.1266 359.9460 15.61221304532123
CYGFM03                 
1 41891U 16078H   26188.14386455  .00023492  00000+0  26783-3 0  9994
2 41891  34.9394  98.5399 0006087 346.3478  13.7082 15.61208080532097
